SAUDISAT 1C (SO-50)     
1 27607U 02058C   26194.65572767  .00000372  00000+0  61967-4 0  9998
2 27607  64.5517  47.0888 0074573 257.5598 101.7156 14.83096658268382
SAUDISAT 2              
1 28371U 04025F   26194.61160343  .00000105  00000+0  34565-4 0  9990
2 28371  98.5519 195.2777 0023978 213.1806 146.7889 14.56697761169593
SAUDISAT 3              
1 31118U 07012B   26194.43941756  .00000108  00000+0  25645-4 0  9999
2 31118  98.1467 144.8592 0015482 139.9353 220.2998 14.71439767 31608
PISAT                   
1 41784U 16059B   26194.50436385  .00000475  00000+0  88466-4 0  9992
2 41784  97.8190 193.8276 0030381 119.9868 240.4360 14.69027907523603
FLYING LAPTOP           
1 42831U 17042G   26194.58046403  .00002183  00000+0  17346-3 0  9991
2 42831  97.4792 349.1191 0019767  37.7066 322.5540 15.01306679490412
SALSAT                  
1 46495U 20068K   26194.50246524  .00004373  00000+0  15263-3 0  9990
2 46495  97.8854 199.1769 0008994 199.0888 161.0016 15.30157505319387
