OBJECT_NAME,OBJECT_ID,EPOCH,MEAN_MOTION,ECCENTRICITY,INCLINATION,RA_OF_ASC_NODE,ARG_OF_PERICENTER,MEAN_ANOMALY,EPHEMERIS_TYPE,CLASSIFICATION_TYPE,NORAD_CAT_ID,ELEMENT_SET_NO,REV_AT_EPOCH,BSTAR,MEAN_MOTION_DOT,MEAN_MOTION_DDOT
SAUDISAT 1C (SO-50),2002-058C,2026-07-13T15:44:14.870688,14.83096658,.0074573,64.5517,47.0888,257.5598,101.7156,0,U,27607,999,26838,.61966598E-4,.372E-5,0
SAUDISAT 2,2004-025F,2026-07-13T14:40:42.536352,14.56697761,.00239781,98.5519,195.2777,213.1806,146.7889,0,U,28371,999,16959,.34565178E-4,.105E-5,0
SAUDISAT 3,2007-012B,2026-07-13T10:32:45.677184,14.71439767,.00154826,98.1467,144.8592,139.9353,220.2998,0,U,31118,999,3160,.25645446E-4,.108E-5,0
PISAT,2016-059B,2026-07-13T12:06:17.036640,14.69027907,.00303814,97.8190,193.8276,119.9868,240.4360,0,U,41784,999,52360,.88465925E-4,.475E-5,0
FLYING LAPTOP,2017-042G,2026-07-13T13:55:52.092192,15.01306679,.00197671,97.4792,349.1191,37.7066,322.5540,0,U,42831,999,49041,.17346388E-3,.2183E-4,0
SALSAT,2020-068K,2026-07-13T12:03:32.996736,15.30157505,.00089942,97.8854,199.1769,199.0888,161.0016,0,U,46495,999,31938,.15262836E-3,.4373E-4,0
